[{"OBJECT_NAME":"STARLINK-30049","OBJECT_ID":"2023-056J","EPOCH":"2026-03-09T22:00:01.999584","MEAN_MOTION":15.2395029,"ECCENTRICITY":0.00020823,"INCLINATION":43.0011,"RA_OF_ASC_NODE":207.7366,"ARG_OF_PERICENTER":282.4938,"MEAN_ANOMALY":42.4645,"EPHEMERIS_TYPE":0,"CLASSIFICATION_TYPE":"U","NORAD_CAT_ID":56294,"ELEMENT_SET_NO":999,"REV_AT_EPOCH":577,"BSTAR":0.035657508,"MEAN_MOTION_DOT":0.00952866,"MEAN_MOTION_DDOT":0},{"OBJECT_NAME":"OBJECT F","OBJECT_ID":"2026-023F","EPOCH":"2026-03-09T17:11:01.401216","MEAN_MOTION":15.23264948,"ECCENTRICITY":0.00223432,"INCLINATION":96.6318,"RA_OF_ASC_NODE":144.1544,"ARG_OF_PERICENTER":121.6413,"MEAN_ANOMALY":238.701,"EPHEMERIS_TYPE":0,"CLASSIFICATION_TYPE":"U","NORAD_CAT_ID":67679,"ELEMENT_SET_NO":999,"REV_AT_EPOCH":484,"BSTAR":0.00053756888,"MEAN_MOTION_DOT":0.00012778,"MEAN_MOTION_DDOT":0}]
